NORAD_CAT_ID,OBJECT_NAME,OBJECT_TYPE,EPOCH,MEAN_MOTION,ECCENTRICITY,INCLINATION,RA_OF_ASC_NODE,ARG_OF_PERICENTER,MEAN_ANOMALY,BSTAR,MEAN_MOTION_DOT,MEAN_MOTION_DDOT,TLE_LINE0,TLE_LINE1,TLE_LINE2,SEMIMAJOR_AXIS,PERIOD,APOGEE,PERIGEE,DECAYED
55420.0,STARLINK-5604,PAYLOAD,2024-07-05 14:29:02,14.98327191,0.0003023,70.0002,147.7671,266.6073,93.474,0.00010393,1.147e-05,0.0,0 STARLINK-5604,1 55420U 23014AF  24187.60349836  .00001147  00000-0  10393-3 0  9999,2 55420  70.0002 147.7671 0003023 266.6073  93.4740 14.98327191 79927,6950.202,96.107,574.168,569.966,0.0
55420.0,STARLINK-5604,PAYLOAD,2024-07-05 22:29:43,14.98324601,0.0002912,70.0004,146.9261,269.2694,90.8131,-3.0354e-05,-4.55e-06,0.0,0 STARLINK-5604,1 55420U 23014AF  24187.93730409 -.00000455  00000-0 -30354-4 0  9998,2 55420  70.0004 146.9261 0002912 269.2694  90.8131 14.98324601 80918,6950.21,96.107,574.098,570.051,0.0
55420.0,STARLINK-5604,PAYLOAD,2024-07-06 08:06:31,14.98325457,0.0002924,70.0004,145.9163,267.7269,92.3555,-2.2543e-05,-3.62e-06,0.0,0 STARLINK-5604,1 55420U 23014AF  24188.33786427 -.00000362  00000-0 -22543-4 0  9992,2 55420  70.0004 145.9163 0002924 267.7269  92.3555 14.98325457 80975,6950.207,96.107,574.104,570.04,0.0
55420.0,STARLINK-5604,PAYLOAD,2024-07-06 14:31:03,14.98326625,0.0002948,70.0006,145.2431,269.0704,91.0117,-1.7225e-05,-2.98e-06,0.0,0 STARLINK-5604,1 55420U 23014AF  24188.60490367 -.00000298  00000-0 -17225-4 0  9996,2 55420  70.0006 145.2431 0002948 269.0704  91.0117 14.98326625 80072,6950.203,96.107,574.117,570.019,0.0
55420.0,STARLINK-5604,PAYLOAD,2024-07-06 22:31:43,14.98328802,0.0002988,70.0005,144.4016,268.4097,91.672,-1.3739e-05,-2.57e-06,0.0,0 STARLINK-5604,1 55420U 23014AF  24188.93870260 -.00000257  00000-0 -13739-4 0  9997,2 55420  70.0005 144.4016 0002988 268.4097  91.6720 14.98328802 81068,6950.197,96.107,574.138,569.985,0.0
55420.0,STARLINK-5604,PAYLOAD,2024-07-07 06:32:24,14.98333008,0.0003027,70.0002,143.5596,269.0105,91.0707,-2.7797e-05,-4.25e-06,0.0,0 STARLINK-5604,1 55420U 23014AF  24189.27250033 -.00000425  00000-0 -27797-4 0  9991,2 55420  70.0002 143.5596 0003027 269.0105  91.0707 14.98333008 81119,6950.184,96.107,574.152,569.945,0.0
55420.0,STARLINK-5604,PAYLOAD,2024-07-08 06:34:24,14.98333659,0.0003088,70.0003,141.0349,269.6376,90.4429,0.00011662,1.299e-05,0.0,0 STARLINK-5604,1 55420U 23014AF  24190.27389595  .00001299  00000-0  11662-3 0  9990,2 55420  70.0003 141.0349 0003088 269.6376  90.4429 14.98333659 80320,6950.182,96.107,574.193,569.9,0.0
55420.0,STARLINK-5604,PAYLOAD,2024-07-08 20:59:37,14.98328333,0.0003057,70.0002,139.5197,269.921,90.1599,1.9716e-05,1.42e-06,0.0,0 STARLINK-5604,1 55420U 23014AF  24190.87474187  .00000142  00000-0  19716-4 0  9993,2 55420  70.0002 139.5197 0003057 269.9210  90.1599 14.98328333 80416,6950.198,96.107,574.188,569.938,0.0
55420.0,STARLINK-5604,PAYLOAD,2024-07-08 22:35:45,14.98328957,0.0003051,70.0002,139.3513,269.864,90.2169,2.5129e-05,2.07e-06,0.0,0 STARLINK-5604,1 55420U 23014AF  24190.94150136  .00000207  00000-0  25129-4 0  9993,2 55420  70.0002 139.3513 0003051 269.8640  90.2169 14.98328957 81367,6950.196,96.107,574.182,569.941,0.0
55420.0,STARLINK-5604,PAYLOAD,2024-07-09 06:36:25,14.98335859,0.0003011,70.0002,138.5098,269.6555,90.4259,7.3077e-05,7.79e-06,0.0,0 STARLINK-5604,1 55420U 23014AF  24191.27529510  .00000779  00000-0  73077-4 0  9995,2 55420  70.0002 138.5098 0003011 269.6555  90.4259 14.98335859 80477,6950.175,96.107,574.132,569.947,0.0
55420.0,STARLINK-5604,PAYLOAD,2024-07-09 21:01:38,14.98329299,0.0002887,70.0005,136.9948,270.0863,89.9965,-5.0626e-05,-6.97e-06,0.0,0 STARLINK-5604,1 55420U 23014AF  24191.87614209 -.00000697  00000-0 -50626-4 0  9997,2 55420  70.0005 136.9948 0002887 270.0863  89.9965 14.98329299 80562,6950.195,96.107,574.067,570.054,0.0
55420.0,STARLINK-5604,PAYLOAD,2024-07-09 22:37:46,14.98328152,0.0002897,70.0004,136.8265,270.0591,90.0236,-6.2699e-05,-8.41e-06,0.0,0 STARLINK-5604,1 55420U 23014AF  24191.94290309 -.00000841  00000-0 -62699-4 0  9990,2 55420  70.0004 136.8265 0002897 270.0591  90.0236 14.98328152 81518,6950.199,96.107,574.077,570.05,0.0
55420.0,STARLINK-5604,PAYLOAD,2024-07-10 13:02:59,14.9833006,0.000285,70.0004,135.3119,271.235,88.8482,5.1195e-06,-3.2e-07,0.0,0 STARLINK-5604,1 55420U 23014AF  24192.54374017 -.00000032  00000-0  51195-5 0  9997,2 55420  70.0004 135.3119 0002850 271.2350  88.8482 14.98330060 81604,6950.193,96.107,574.039,570.077,0.0
55420.0,STARLINK-5604,PAYLOAD,2024-07-10 21:03:39,14.98332851,0.0002847,70.0003,134.4704,271.0,89.0833,2.5401e-05,2.1e-06,0.0,0 STARLINK-5604,1 55420U 23014AF  24192.87753769  .00000210  00000-0  25401-4 0  9995,2 55420  70.0003 134.4704 0002847 271.0000  89.0833 14.98332851 80713,6950.184,96.107,574.028,570.07,0.0
55420.0,STARLINK-5604,PAYLOAD,2024-07-10 22:39:47,14.98333102,0.0002847,70.0003,134.3021,271.0006,89.0827,2.7798e-05,2.39e-06,0.0,0 STARLINK-5604,1 55420U 23014AF  24192.94429734  .00000239  00000-0  27798-4 0  9997,2 55420  70.0003 134.3021 0002847 271.0006  89.0827 14.98333102 81668,6950.183,96.107,574.027,570.07,0.0
55420.0,STARLINK-5604,PAYLOAD,2024-07-11 06:40:27,14.9833776,0.0002817,70.0003,133.4607,270.4515,89.6322,6.4993e-05,6.83e-06,0.0,0 STARLINK-5604,1 55420U 23014AF  24193.27809246  .00000683  00000-0  64993-4 0  9995,2 55420  70.0003 133.4607 0002817 270.4515  89.6322 14.98337760 81719,6950.169,96.107,573.992,570.076,0.0
55420.0,STARLINK-5604,PAYLOAD,2024-07-12 05:06:20,14.98327339,0.0002793,70.0004,131.1047,268.5617,91.5222,3.3128e-05,3.02e-06,0.0,0 STARLINK-5604,1 55420U 23014AF  24194.21273974  .00000302  00000-0  33128-4 0  9997,2 55420  70.0004 131.1047 0002793 268.5617  91.5222 14.98327339 80910,6950.201,96.107,574.007,570.125,0.0
55420.0,STARLINK-5604,PAYLOAD,2024-07-12 06:42:28,14.98329043,0.0002793,70.0004,130.9364,267.9719,92.1121,4.9948e-05,5.03e-06,0.0,0 STARLINK-5604,1 55420U 23014AF  24194.27949827  .00000503  00000-0  49948-4 0  9990,2 55420  70.0004 130.9364 0002793 267.9719  92.1121 14.98329043 81869,6950.196,96.107,574.002,570.12,0.0
55420.0,STARLINK-5604,PAYLOAD,2024-07-12 22:43:49,14.98327713,0.0002896,70.0005,129.2531,269.7847,90.298,-5.0389e-05,-6.94e-06,0.0,0 STARLINK-5604,1 55420U 23014AF  24194.94710195 -.00000694  00000-0 -50389-4 0  9992,2 55420  70.0005 129.2531 0002896 269.7847  90.2980 14.98327713 81968,6950.2,96.107,574.078,570.052,0.0
55420.0,STARLINK-5604,PAYLOAD,2024-07-13 05:08:21,14.9833286,0.0002855,70.0007,128.58,267.9799,92.1033,-2.8532e-06,-1.27e-06,0.0,0 STARLINK-5604,1 55420U 23014AF  24195.21413732 -.00000127  00000-0 -28532-5 0  9997,2 55420  70.0007 128.5800 0002855 267.9799  92.1033 14.98332860 81062,6950.184,96.107,574.033,570.065,0.0
55420.0,STARLINK-5604,PAYLOAD,2024-07-13 22:45:50,14.98329642,0.0003011,70.0004,126.7274,268.4528,91.6286,3.8539e-05,3.67e-06,0.0,0 STARLINK-5604,1 55420U 23014AF  24195.94849770  .00000367  00000-0  38539-4 0  9993,2 55420  70.0004 126.7274 0003011 268.4528  91.6286 14.98329642 82110,6950.194,96.107,574.152,569.966,0.0
55420.0,STARLINK-5604,PAYLOAD,2024-07-14 05:10:21,14.98337382,0.0003036,70.0004,126.0543,269.5514,90.5297,8.2368e-05,8.9e-06,0.0,0 STARLINK-5604,1 55420U 23014AF  24196.21553130  .00000890  00000-0  82368-4 0  9996,2 55420  70.0004 126.0543 0003036 269.5514  90.5297 14.98337382 81216,6950.17,96.107,574.145,569.925,0.0
55420.0,STARLINK-5604,PAYLOAD,2024-07-14 13:11:02,14.98321023,0.0002984,70.0004,125.213,277.1973,82.8846,0.00022243,2.561e-05,0.0,0 STARLINK-5604,1 55420U 23014AF  24196.54933887  .00002561  00000-0  22243-3 0  9995,2 55420  70.0004 125.2130 0002984 277.1973  82.8846 14.98321023 82203,6950.221,96.108,574.16,570.012,0.0
55420.0,STARLINK-5604,PAYLOAD,2024-07-14 21:11:43,14.98326497,0.0003003,70.0007,124.372,270.9559,89.1256,4.043e-05,3.89e-06,0.0,0 STARLINK-5604,1 55420U 23014AF  24196.88313881  .00000389  00000-0  40430-4 0  9993,2 55420  70.0007 124.3720 0003003 270.9559  89.1256 14.98326497 81311,6950.204,96.107,574.156,569.982,0.0
55420.0,STARLINK-5604,PAYLOAD,2024-07-14 22:47:51,14.98326512,0.0003007,70.0007,124.2037,270.9822,89.0992,3.9502e-05,3.78e-06,0.0,0 STARLINK-5604,1 55420U 23014AF  24196.94989893  .00000378  00000-0  39502-4 0  9998,2 55420  70.0007 124.2037 0003007 270.9822  89.0992 14.98326512 82267,6950.204,96.107,574.159,569.979,0.0
55420.0,STARLINK-5604,PAYLOAD,2024-07-15 03:36:14,14.98334543,0.000286,70.0008,123.6981,269.2507,90.8324,7.1325e-05,7.58e-06,0.0,0 STARLINK-5604,1 55420U 23014AF  24197.15017279  .00000758  00000-0  71325-4 0  9993,2 55420  70.0008 123.6981 0002860 269.2507  90.8324 14.98334543 81357,6950.179,96.107,574.032,570.056,0.0
55420.0,STARLINK-5604,PAYLOAD,2024-07-15 05:12:22,14.98336229,0.0002819,70.0009,123.5297,269.4449,90.6387,8.5448e-05,9.27e-06,0.0,0 STARLINK-5604,1 55420U 23014AF  24197.21693125  .00000927  00000-0  85448-4 0  9999,2 55420  70.0009 123.5297 0002819 269.4449  90.6387 14.98336229 82304,6950.174,96.107,573.998,570.079,0.0
55420.0,STARLINK-5604,PAYLOAD,2024-07-15 21:13:44,14.98328602,0.0002799,70.0006,121.8466,270.582,89.5018,-1.6257e-05,-2.87e-06,0.0,0 STARLINK-5604,1 55420U 23014AF  24197.88453775 -.00000287  00000-0 -16257-4 0  9990,2 55420  70.0006 121.8466 0002799 270.5820  89.5018 14.98328602 81463,6950.197,96.107,574.008,570.117,0.0
55420.0,STARLINK-5604,PAYLOAD,2024-07-16 05:14:24,14.98331674,0.0002716,70.0011,121.0052,271.9829,88.1019,4.3654e-05,4.28e-06,0.0,0 STARLINK-5604,1 55420U 23014AF  24198.21833447  .00000428  00000-0  43654-4 0  9992,2 55420  70.0011 121.0052 0002716 271.9829  88.1019 14.98331674 82454,6950.188,96.107,573.94,570.165,0.0
55420.0,STARLINK-5604,PAYLOAD,2024-07-16 21:15:44,14.98335651,0.0002631,70.001,119.3222,269.7888,90.297,3.7614e-05,3.56e-06,0.0,0 STARLINK-5604,1 55420U 23014AF  24198.88593022  .00000356  00000-0  37614-4 0  9996,2 55420  70.0010 119.3222 0002631 269.7888  90.2970 14.98335651 82558,6950.175,96.107,573.869,570.212,0.0
